GLOBALSTAR M063 [+]     
1 26081U 00008A   23335.83797424 -.00000075  00000+0  10970-3 0  9997
2 26081  51.9920 155.2008 0003709 328.2543 138.1219 11.86148474 90785
GLOBALSTAR M062 [-]     
1 26082U 00008B   23334.37267559 -.00000040  00000+0  41776-3 0  9997
2 26082  51.9862 316.6704 0007215 349.4309 176.8166 12.43422350 88855
GLOBALSTAR M060 [-]     
1 26083U 00008C   23335.77990674 -.00000089  00000+0  16148-4 0  9993
2 26083  52.0000 192.8353 0004624  66.0714  12.4065 12.17620412 83903
GLOBALSTAR M064 [-]     
1 26084U 00008D   23335.08292345 -.00000021  00000+0  89113-3 0  9995
2 26084  52.0033 262.6709 0002329  53.1514 306.9532 11.88512920100132
GLOBALSTAR M065 [+]     
1 31571U 07020A   23335.79216523 -.00000058  00000+0  25374-3 0  9994
2 31571  51.9868 140.9818 0010679 137.2568 328.0035 12.61959668762573
GLOBALSTAR M069 [+]     
1 31573U 07020C   23334.56167046 -.00000085  00000+0  10685-3 0  9994
2 31573  51.9937 100.8102 0001060 123.4604 317.8743 12.62261482763175
GLOBALSTAR M072 [+]     
1 31574U 07020D   23335.04811920 -.00000066  00000+0  21109-3 0  9998
2 31574  52.0067 195.0938 0001576  81.8857  68.8604 12.62269356761731
GLOBALSTAR M071 [P]     
1 31576U 07020F   23333.72329194 -.00000094  00000+0  52373-4 0  9999
2 31576  52.0049 108.3727 0000822 106.5738   2.1512 12.62273324763058
